SL-8 R/B                
1 11574U 79089B   26067.15024049  .00000400  00000+0  12880-3 0  9992
2 11574  74.0669  93.8939 0017161 266.7429  93.1764 14.42349850435883
SL-14 R/B               
1 11672U 80005B   26067.11692776  .00000807  00000+0  79075-4 0  9996
2 11672  82.5147 308.7282 0016052 163.3381 196.8369 14.90928613476254
SL-8 R/B                
1 12139U 81003B   26067.08013403  .00027158  00000+0  69782-3 0  9995
2 12139  82.9386 291.5121 0262326 184.2241 175.6783 15.10898292314435
SL-3 R/B                
1 12465U 81046B   26067.09725929  .00018063  00000+0  42056-3 0  9998
2 12465  81.2296 291.6568 0019663  27.8344 332.3946 15.41946157438185
SL-3 R/B                
1 12904U 81103B   26067.12802450  .00008355  00000+0  37104-3 0  9990
2 12904  81.1589 215.2636 0012532 292.4071  67.5832 15.21355733972995
SL-3 R/B                
1 13068U 82013B   26067.13674932  .00007712  00000+0  33436-3 0  9996
2 13068  81.1763 162.5903 0022580 182.5394 177.5727 15.21999398404113
SL-3 R/B                
1 13154U 82039B   26067.13278839  .00004179  00000+0  25276-3 0  9993
2 13154  81.1585 217.7566 0029783 329.5832  30.3664 15.10071218381403
SL-3 R/B                
1 13403U 82079B   26067.09191973  .00010791  00000+0  43040-3 0  9998
2 13403  81.1482 194.9632 0025026 170.0559 190.1175 15.24772070377458
SL-14 R/B               
1 13553U 82092B   26067.15608669  .00000675  00000+0  73071-4 0  9999
2 13553  82.5697 142.8339 0019070 309.0117  76.2360 14.86664954328701
SL-3 R/B                
1 13819U 83010B   26067.07852481  .00024953  00000+0  50198-3 0  9998
2 13819  81.1066   4.2221 0018125  56.3076 303.9894 15.46287134357698
SL-3 R/B                
1 14208U 83075B   26067.12602616  .00016079  00000+0  42407-3 0  9995
2 14208  97.6144  71.6438 0019994 231.8866 128.0576 15.38372689329918
COSMOS 1536             
1 14699U 84013A   26067.14391524  .00008876  00000+0  36657-3 0  9993
2 14699  82.5424 109.3869 0012566 289.7296  70.2585 15.23801642272386
SL-14 R/B               
1 14820U 84027B   26067.00971030  .00000711  00000+0  78491-4 0  9998
2 14820  82.5385 246.5887 0017491 343.6045  16.4603 14.85974714247389
SL-8 R/B                
1 15483U 85006B   26067.00581309  .00000291  00000+0  10516-3 0  9994
2 15483  74.0432 264.2473 0018510 182.4592 330.5275 14.37781127153787
SL-12 R/B(2)            
1 15772U 85042D   26067.14590604  .00000036  00000+0  37445-4 0  9996
2 15772  71.1062  90.9907 0033327 130.6977 287.0285 14.21982030114172
SL-14 R/B               
1 15945U 85069B   26067.12963726  .00000789  00000+0  86367-4 0  9996
2 15945  82.5284  26.3996 0018327 192.9424 167.1325 14.86431255172602
SL-16 R/B               
1 16182U 85097B   26067.14234903 -.00000173  00000+0 -62608-4 0  9992
2 16182  71.0031 143.8120 0009939 261.6181 117.0443 14.16599243 87016
